{
  "type": "FeatureCollection",
  "features": [
    {
      "type": "Feature",
      "properties": {
        "norad_id": 30690,
        "name": "FENGYUN 1C DEB",
        "group": "fengyun-1c-debris",
        "lat": 79.30037336330378,
        "lon": -150.91598708530137,
        "alt_km": 806.0074965477052,
        "timestamp": "2025-12-03T08:58:46.279608+00:00",
        "meta_object_name": "FENGYUN 1C DEB",
        "meta_object_id": "1999-025AQY",
        "meta_epoch": "2025-12-03T01:49:40.420992",
        "meta_mean_motion": 14.02265789,
        "meta_eccentricity": 0.0104412,
        "meta_inclination": 99.1596,
        "meta_ra_of_asc_node": 267.4241,
        "meta_arg_of_pericenter": 102.4532,
        "meta_mean_anomaly": 278.9121,
        "meta_ephemeris_type": 0,
        "meta_classification_type": "U",
        "meta_norad_cat_id": 30690,
        "meta_element_set_no": 999,
        "meta_rev_at_epoch": 95572,
        "meta_bstar": 0.0014474,
        "meta_mean_motion_dot": 2.282e-05,
        "meta_mean_motion_ddot": 0,
        "tle_line1": "1 30690U 99025AQY 25337.07616228  .00002282  00000+0  14474-2 0  9990",
        "tle_line2": "2 30690  99.1596 267.4241 0104412 102.4532 278.9121 14.02265789955726"
      },
      "geometry": {
        "type": "Point",
        "coordinates": [
          -150.91598708530137,
          79.30037336330378
        ]
      }
    },
    {
      "type": "Feature",
      "properties": {
        "norad_id": 30691,
        "name": "FENGYUN 1C DEB",
        "group": "fengyun-1c-debris",
        "lat": 25.66205897012449,
        "lon": 173.59096922100048,
        "alt_km": 954.771982158627,
        "timestamp": "2025-12-03T08:58:46.279618+00:00",
        "meta_object_name": "FENGYUN 1C DEB",
        "meta_object_id": "1999-025AQZ",
        "meta_epoch": "2025-12-02T12:14:22.660800",
        "meta_mean_motion": 13.89386426,
        "meta_eccentricity": 0.01391392,
        "meta_inclination": 98.7431,
        "meta_ra_of_asc_node": 348.5393,
        "meta_arg_of_pericenter": 261.2387,
        "meta_mean_anomaly": 254.2199,
        "meta_ephemeris_type": 0,
        "meta_classification_type": "U",
        "meta_norad_cat_id": 30691,
        "meta_element_set_no": 999,
        "meta_rev_at_epoch": 94974,
        "meta_bstar": 0.0014193693,
        "meta_mean_motion_dot": 1.83e-05,
        "meta_mean_motion_ddot": 0,
        "tle_line1": "1 30691U 99025AQZ 25336.50998450  .00001830  00000+0  14194-2 0  9995",
        "tle_line2": "2 30691  98.7431 348.5393 0139139 261.2387 254.2199 13.89386426949748"
      },
      "geometry": {
        "type": "Point",
        "coordinates": [
          173.59096922100048,
          25.66205897012449
        ]
      }
    },
    {
      "type": "Feature",
      "properties": {
        "norad_id": 30693,
        "name": "FENGYUN 1C DEB",
        "group": "fengyun-1c-debris",
        "lat": -6.682124416269312,
        "lon": 141.75045559121943,
        "alt_km": 831.3002724042772,
        "timestamp": "2025-12-03T08:58:46.279629+00:00",
        "meta_object_name": "FENGYUN 1C DEB",
        "meta_object_id": "1999-025ARB",
        "meta_epoch": "2025-12-02T21:54:13.194144",
        "meta_mean_motion": 14.13267654,
        "meta_eccentricity": 0.0028819,
        "meta_inclination": 98.6855,
        "meta_ra_of_asc_node": 322.3287,
        "meta_arg_of_pericenter": 195.6312,
        "meta_mean_anomaly": 164.3973,
        "meta_ephemeris_type": 0,
        "meta_classification_type": "U",
        "meta_norad_cat_id": 30693,
        "meta_element_set_no": 999,
        "meta_rev_at_epoch": 96796,
        "meta_bstar": 0.00040482,
        "meta_mean_motion_dot": 7.19e-06,
        "meta_mean_motion_ddot": 0,
        "tle_line1": "1 30693U 99025ARB 25336.91265271  .00000719  00000+0  40482-3 0  9995",
        "tle_line2": "2 30693  98.6855 322.3287 0028819 195.6312 164.3973 14.13267654967965"
      },
      "geometry": {
        "type": "Point",
        "coordinates": [
          141.75045559121943,
          -6.682124416269312
        ]
      }
    },
    {
      "type": "Feature",
      "properties": {
        "norad_id": 30694,
        "name": "FENGYUN 1C DEB",
        "group": "fengyun-1c-debris",
        "lat": 35.90236319404011,
        "lon": 128.9123385727003,
        "alt_km": 700.7292432703762,
        "timestamp": "2025-12-03T08:58:46.279639+00:00",
        "meta_object_name": "FENGYUN 1C DEB",
        "meta_object_id": "1999-025ARC",
        "meta_epoch": "2025-12-02T14:33:19.525536",
        "meta_mean_motion": 14.8592489,
        "meta_eccentricity": 0.01326136,
        "meta_inclination": 99.0455,
        "meta_ra_of_asc_node": 301.4176,
        "meta_arg_of_pericenter": 327.2969,
        "meta_mean_anomaly": 32.0082,
        "meta_ephemeris_type": 0,
        "meta_classification_type": "U",
        "meta_norad_cat_id": 30694,
        "meta_element_set_no": 999,
        "meta_rev_at_epoch": 99951,
        "meta_bstar": 0.0023269694,
        "meta_mean_motion_dot": 0.00023803,
        "meta_mean_motion_ddot": 0,
        "tle_line1": "1 30694U 99025ARC 25336.60647599  .00023803  00000+0  23270-2 0  9993",
        "tle_line2": "2 30694  99.0455 301.4176 0132613 327.2969  32.0082 14.85924890999510"
      },
      "geometry": {
        "type": "Point",
        "coordinates": [
          128.9123385727003,
          35.90236319404011
        ]
      }
    },
    {
      "type": "Feature",
      "properties": {
        "norad_id": 30696,
        "name": "FENGYUN 1C DEB",
        "group": "fengyun-1c-debris",
        "lat": 40.47417436911256,
        "lon": 19.276842275715335,
        "alt_km": 764.1720509363777,
        "timestamp": "2025-12-03T08:58:46.279649+00:00",
        "meta_object_name": "FENGYUN 1C DEB",
        "meta_object_id": "1999-025ARE",
        "meta_epoch": "2025-12-03T02:16:54.664896",
        "meta_mean_motion": 14.44663695,
        "meta_eccentricity": 0.008994,
        "meta_inclination": 98.3905,
        "meta_ra_of_asc_node": 26.2365,
        "meta_arg_of_pericenter": 154.6507,
        "meta_mean_anomaly": 236.8531,
        "meta_ephemeris_type": 0,
        "meta_classification_type": "U",
        "meta_norad_cat_id": 30696,
        "meta_element_set_no": 999,
        "meta_rev_at_epoch": 98165,
        "meta_bstar": 0.0012041,
        "meta_mean_motion_dot": 4.34e-05,
        "meta_mean_motion_ddot": 0,
        "tle_line1": "1 30696U 99025ARE 25337.09507714  .00004340  00000+0  12041-2 0  9992",
        "tle_line2": "2 30696  98.3905  26.2365 0089940 154.6507 236.8531 14.44663695981657"
      },
      "geometry": {
        "type": "Point",
        "coordinates": [
          19.276842275715335,
          40.47417436911256
        ]
      }
    },
    {
      "type": "Feature",
      "properties": {
        "norad_id": 30697,
        "name": "FENGYUN 1C DEB",
        "group": "fengyun-1c-debris",
        "lat": 37.17917590173271,
        "lon": -138.91121661138916,
        "alt_km": 821.8832020089749,
        "timestamp": "2025-12-03T08:58:46.279680+00:00",
        "meta_object_name": "FENGYUN 1C DEB",
        "meta_object_id": "1999-025ARF",
        "meta_epoch": "2025-12-02T10:16:56.460864",
        "meta_mean_motion": 14.13419891,
        "meta_eccentricity": 0.00877171,
        "meta_inclination": 98.9085,
        "meta_ra_of_asc_node": 33.3149,
        "meta_arg_of_pericenter": 214.0225,
        "meta_mean_anomaly": 159.6866,
        "meta_ephemeris_type": 0,
        "meta_classification_type": "U",
        "meta_norad_cat_id": 30697,
        "meta_element_set_no": 999,
        "meta_rev_at_epoch": 96115,
        "meta_bstar": 0.0019833151,
        "meta_mean_motion_dot": 3.823e-05,
        "meta_mean_motion_ddot": 0,
        "tle_line1": "1 30697U 99025ARF 25336.42843126  .00003823  00000+0  19833-2 0  9990",
        "tle_line2": "2 30697  98.9085  33.3149 0087717 214.0225 159.6866 14.13419891961159"
      },
      "geometry": {
        "type": "Point",
        "coordinates": [
          -138.91121661138916,
          37.17917590173271
        ]
      }
    },
    {
      "type": "Feature",
      "properties": {
        "norad_id": 30699,
        "name": "FENGYUN 1C DEB",
        "group": "fengyun-1c-debris",
        "lat": -48.471567822392025,
        "lon": -94.75063333887104,
        "alt_km": 741.5520285435623,
        "timestamp": "2025-12-03T08:58:46.279691+00:00",
        "meta_object_name": "FENGYUN 1C DEB",
        "meta_object_id": "1999-025ARH",
        "meta_epoch": "2025-12-02T07:01:24.932352",
        "meta_mean_motion": 14.46647919,
        "meta_eccentricity": 0.0003688,
        "meta_inclination": 99.3116,
        "meta_ra_of_asc_node": 94.7383,
        "meta_arg_of_pericenter": 279.4254,
        "meta_mean_anomaly": 80.6518,
        "meta_ephemeris_type": 0,
        "meta_classification_type": "U",
        "meta_norad_cat_id": 30699,
        "meta_element_set_no": 999,
        "meta_rev_at_epoch": 97462,
        "meta_bstar": 0.002914,
        "meta_mean_motion_dot": 0.00010486,
        "meta_mean_motion_ddot": 0,
        "tle_line1": "1 30699U 99025ARH 25336.29264968  .00010486  00000+0  29140-2 0  9993",
        "tle_line2": "2 30699  99.3116  94.7383 0003688 279.4254  80.6518 14.46647919974627"
      },
      "geometry": {
        "type": "Point",
        "coordinates": [
          -94.75063333887104,
          -48.471567822392025
        ]
      }
    }
  ]
}